id,name,address,type,stars,nreviews,closingtime,comment,lat,lon,gmapsurl,businesspic
1,McCormick Place,"2301 S Martin Luther King Dr, Chicago, IL",Convention center,4.5,13051,Closes 10 PM,Huge conference center.,41.7485298,-87.6148967,https://www.google.com/maps/place/McCormick+Place/data=!4m7!3m6!1s0x880e2b8114325857:0xde54f80e4327f5e2!8m2!3d41.8527221!4d-87.6158294!16zL20vMGM3bWg!19sChIJV1gyFIErDogR4vUnQw74VN4?authuser=0&hl=en&rclk=1,https://lh5.googleusercontent.com/p/AF1QipNWSIHYdr5mwMyWGpmpch6fOE9olEnRyvMM3JA_=w173-h92-k-no
2,Merchandise Mart Conference Hall,"222 W Merchandise Mart Plaza, Chicago, IL",Conference center,4.7,179,,Nice exhebition center,41.8881799,-87.635064,https://www.google.com/maps/place/Merchandise+Mart+Conference+Hall/data=!4m7!3m6!1s0x880e2cb6fb2adfc1:0x61c8006c8f31717b!8m2!3d41.8884096!4d-87.6354498!16s%2Fg%2F11r9cs3s9!19sChIJwd8q-7YsDogRe3Exj2wAyGE?authuser=0&hl=en&rclk=1,https://lh5.googleusercontent.com/p/AF1QipN1QUKDwSJtm1vKhiK_jmz5oqE3Ah9N3CGCIxNW=w80-h106-k-no
3,"McCormick Place Lakeside Center, East Building","2301 S DuSable Lake Shore Dr, Chicago, IL",Convention center,4.4,294,Closes 12 AM,Nice convention center,41.8109718,-87.5894688,"https://www.google.com/maps/place/McCormick+Place+Lakeside+Center,+East+Building/data=!4m7!3m6!1s0x880e2b80c4121197:0x72ccc5d868eedc85!8m2!3d41.8523139!4d-87.6118774!16s%2Fg%2F11g8np5w3r!19sChIJlxESxIArDogRhdzuaNjFzHI?authuser=0&hl=en&rclk=1",https://lh5.googleusercontent.com/p/AF1QipOHH4LLsUSYD00F0VfRO26_P7J4hnwkcus5LRqo=w122-h92-k-no
4,Gleacher Center,"450 Cityfront Plaza Dr, Chicago, IL",Conference center,4.7,496,Closes 12 AM,Great conference center!,41.89032232226792,-87.62148444006242,https://www.google.com/maps/place/Gleacher+Center/data=!4m7!3m6!1s0x880e26623550ffd7:0x2de5428703b98337!8m2!3d41.8897122!4d-87.6222842!16s%2Fg%2F12cpq1xlp!19sChIJ1_9QNWImDogRN4O5A4dC5S0?authuser=0&hl=en&rclk=1,https://lh5.googleusercontent.com/p/AF1QipPYCIn05EINyGBG_uDjjowRYNRZceLqTjbmLFLi=w138-h92-k-no
5,Puerto Convention Center,"150 N Wacker Dr # 1740, Chicago, IL",Convention center,5.0,2,,,41.8846848,-87.63736271268832,https://www.google.com/maps/place/Puerto+Convention+Center/data=!4m7!3m6!1s0x880e2cb816ebfe3d:0x18df602b36ded0d6!8m2!3d41.8846302!4d-87.6373864!16s%2Fg%2F1263yh074!19sChIJPf7rFrgsDogR1tDeNitg3xg?authuser=0&hl=en&rclk=1,https://lh5.googleusercontent.com/p/AF1QipOiwZeFx5sun-B5l6EYQkTP0uTuXNz6AiRi-bJF=w122-h92-k-no
6,McCormick Place Lakeside Center,"2301 S King Dr, Chicago, IL",Convention center,4.7,17,,,41.7072216,-87.6137666,https://www.google.com/maps/place/McCormick+Place+Lakeside+Center/data=!4m7!3m6!1s0x880e2b81194de491:0x4a2cb220d07c57f8!8m2!3d41.8527659!4d-87.610938!16s%2Fg%2F11j9d3wy5b!19sChIJkeRNGYErDogR-Fd80CCyLEo?authuser=0&hl=en&rclk=1,https://lh5.googleusercontent.com/p/AF1QipMuP906EAJJF0G-YKdzDgjMbIMkiYwnq3_UH_mI=w122-h92-k-no
7,Together by Hyatt,"28 N Franklin St, Chicago, IL",Convention center,5.0,1,,,41.8862542,-87.6354362,https://www.google.com/maps/place/Together+by+Hyatt/data=!4m7!3m6!1s0x880e2d91e2118b03:0xbe30752e900df2f8!8m2!3d41.882755!4d-87.6356806!16s%2Fg%2F11vbcxfxcq!19sChIJA4sR4pEtDogR-PINkC51ML4?authuser=0&hl=en&rclk=1,https://streetviewpixels-pa.googleapis.com/v1/thumbnail?panoid=q83MDU7rVKouBruV7aYAgg&cb_client=search.gws-prod.gps&w=80&h=92&yaw=299.21942&pitch=0&thumbfov=100
8,Privileged Access TV,"1550 S Indiana Ave, Chicago, IL",Convention center,4.5,2,,,41.8606458,-87.6228826881711,https://www.google.com/maps/place/Privileged+Access+TV/data=!4m7!3m6!1s0x880e2c815f0b17dd:0xc33e95c6771bcccd!8m2!3d41.8606092!4d-87.6228617!16s%2Fg%2F12625bfxs!19sChIJ3RcLX4EsDogRzcwbd8aVPsM?authuser=0&hl=en&rclk=1,https://streetviewpixels-pa.googleapis.com/v1/thumbnail?panoid=YU5ShZihRviqTtKakBvu2A&cb_client=search.gws-prod.gps&w=80&h=92&yaw=356.0091&pitch=0&thumbfov=100
9,Conference Direct,"1220 N Kenilworth Ave, Chicago, IL",Convention center,5.0,1,,,41.90864218367347,-87.79834855102041,https://www.google.com/maps/place/Conference+Direct/data=!4m7!3m6!1s0x880fcb378e6d5153:0x660f0d4bedef001e!8m2!3d41.9079688!4d-87.7976962!16s%2Fg%2F1v6l829r!19sChIJU1FtjjfLD4gRHgDv7UsND2Y?authuser=0&hl=en&rclk=1,https://streetviewpixels-pa.googleapis.com/v1/thumbnail?panoid=ZD1tAigdRsqkE1dEO7rSYA&cb_client=search.gws-prod.gps&w=80&h=92&yaw=84.538086&pitch=0&thumbfov=100
10,McCormick Square,"301 E Cermak Rd, Chicago, IL",Convention center,4.6,135,,Second time here in this venue for the AHA conference.,41.85306707117035,-87.62049068391461,https://www.google.com/maps/place/McCormick+Square/data=!4m7!3m6!1s0x880e2b80a6d27bc5:0xa70c3c2045e17572!8m2!3d41.8512635!4d-87.6184672!16s%2Fg%2F11xm7fphw!19sChIJxXvSpoArDogRcnXhRSA8DKc?authuser=0&hl=en&rclk=1,https://lh5.googleusercontent.com/p/AF1QipO7KEhLfbPI9jNyqejZGhZqE9gwRILLiBVWVpIC=w173-h92-k-no
11,Korea Trade Center,"2301 S DuSable Lake Shore Dr, Chicago, IL",Convention center,4.0,3,,,41.8109718,-87.5894688,https://www.google.com/maps/place/Korea+Trade+Center/data=!4m7!3m6!1s0x880e2b8215d00223:0x510081055d828824!8m2!3d41.8526229!4d-87.6119577!16s%2Fg%2F1264jd5hn!19sChIJIwLQFYIrDogRJIiCXQWBAFE?authuser=0&hl=en&rclk=1,https://maps.gstatic.com/tactile/pane/result-no-thumbnail-2x.png
12,McCormick Place,"12 E Cermak Rd, Chicago, IL",Convention center,3.0,2,,It's a great place to hold a convention.,41.8530174375,-87.62687764583333,https://www.google.com/maps/place/McCormick+Place/data=!4m7!3m6!1s0x880e2d5436e44f0d:0xc993f5a8fb7fabd7!8m2!3d41.8526157!4d-87.6264004!16s%2Fg%2F11tx549rw7!19sChIJDU_kNlQtDogR16t_-6j1k8k?authuser=0&hl=en&rclk=1,https://lh5.googleusercontent.com/p/AF1QipO2F3edlXRzBE-cc-CJ4OQoxy7BmQc2l0aPSREE=w122-h92-k-no
13,Metropolitan Pier & Exposition,"600 E Grand Ave, Chicago, IL",Convention center,4.8,6,,,41.89179985,-87.60414466382959,https://www.google.com/maps/place/Metropolitan+Pier+%26+Exposition/data=!4m7!3m6!1s0x880e2b526441ea5b:0x2cea9b2760c0866d!8m2!3d41.8913699!4d-87.6077371!16s%2Fg%2F1261nfp7m!19sChIJW-pBZFIrDogRbYbAYCeb6iw?authuser=0&hl=en&rclk=1,https://lh5.googleusercontent.com/p/AF1QipOcyTfZKmj463qF5-4z6uAKQgA1bejzlwGZ8ZnP=w80-h106-k-no
14,Venue SIX10,"610 S Michigan Ave, Chicago, IL",Conference center,4.6,222,,,41.87401745,-87.62480016554254,https://www.google.com/maps/place/Venue+SIX10/data=!4m7!3m6!1s0x880e2c98c7789d2b:0xa1b99cfdb396e384!8m2!3d41.8740081!4d-87.6246643!16s%2Fg%2F1hc9wxg8r!19sChIJK514x5gsDogRhOOWs_2cuaE?authuser=0&hl=en&rclk=1,https://lh5.googleusercontent.com/p/AF1QipPV-xvseJ1qyBOfg9XDxnmQSucu0lql0c2ynIz1=w122-h92-k-no
15,White Eagle Events & Convention Center,"6839 N Milwaukee Ave, Chicago, IL",Convention center,4.1,1120,Closes 7 PM,Recently attended a conference here.,42.00561587799315,-87.7952746270702,https://www.google.com/maps/place/White+Eagle+Events+%26+Convention+Center/data=!4m7!3m6!1s0x880fc93d712241cd:0x9b1a51b82d05eb59!8m2!3d42.0052974!4d-87.7944442!16s%2Fg%2F1hc56tz4w!19sChIJzUEicT3JD4gRWesFLbhRGps?authuser=0&hl=en&rclk=1,https://lh5.googleusercontent.com/p/AF1QipNHS5yv4mG0YwkMkpVa4PshiFoxBuihcUn7iE2b=w122-h92-k-no
16,McCormick Place - West Building,"2317 S Indiana Ave, Chicago, IL",Convention center,4.5,1175,Opens 8:30 AM Mon,Very nice conference center.,41.85092338007886,-87.62212778716244,https://www.google.com/maps/place/McCormick+Place+-+West+Building/data=!4m7!3m6!1s0x880e2c7f2fffffff:0xb4c8efcdd6f8000a!8m2!3d41.8506084!4d-87.6217268!16s%2Fg%2F11fx7wvfs6!19sChIJ____L38sDogRCgD41s3vyLQ?authuser=0&hl=en&rclk=1,https://lh5.googleusercontent.com/p/AF1QipPXaR4R59UUC0eBfrWc-dZ6bsdIH8HpbV3ddtfq=w155-h92-k-no
17,O'Hare Tech Center Venue and Conference Center,"9950 Lawrence Ave, Chicago, IL",Conference center,4.8,47,4 PM Opens 12 PM Sun,I cannot say enough great things about O’Hare Tech Center Venue.,41.9661933,-87.8553617,https://www.google.com/maps/place/O%27Hare+Tech+Center+Venue+and+Conference+Center/data=!4m7!3m6!1s0x880fb584637ddd2b:0xeaf3f73860cb1cbb!8m2!3d41.9659862!4d-87.8753049!16s%2Fg%2F11srvnvl1l!19sChIJK919Y4S1D4gRuxzLYDj38-o?authuser=0&hl=en&rclk=1,https://lh5.googleusercontent.com/p/AF1QipMJtFhKxHT5T1YOR-Vz6XYfq9U9kpF9NMfUBP3R=w122-h92-k-no
18,Convene,"233 S Wacker Dr, Chicago, IL",Event venue,5.0,5,,Fantastic venue for a,41.878738049999995,-87.63596121188081,https://www.google.com/maps/place/Convene/data=!4m7!3m6!1s0x880e2d9add9c6e95:0x87487ef51490d8a8!8m2!3d41.8788808!4d-87.6365158!16s%2Fg%2F11pzs20tkn!19sChIJlW6c3ZotDogRqNiQFPV-SIc?authuser=0&hl=en&rclk=1,https://lh5.googleusercontent.com/p/AF1QipOmnq4d8boEUn9kN8cMMbLAjfSRzxXOJfjlS_d9=w138-h92-k-no
19,Midwest Conference Center,"401 W Lake St, Chicago, IL",Conference center,4.3,341,,Not a very glamorous convention center.,41.885638,-87.638357,https://www.google.com/maps/place/Midwest+Conference+Center/data=!4m7!3m6!1s0x880fb4b41f9608c9:0xe4981503b8dad567!8m2!3d41.9056279!4d-87.9176064!16s%2Fg%2F1tdq_9j3!19sChIJyQiWH7S0D4gRZ9XauAMVmOQ?authuser=0&hl=en&rclk=1,https://lh5.googleusercontent.com/p/AF1QipPOz3RP89q7EDaI1lOLWJtoQ_eygtdhG00bT7Zt=w133-h92-k-no
20,Kasbeer Hall,"25 E Pearson St, Chicago, IL",Conference center,4.4,5,,,41.8971495,-87.6271627,https://www.google.com/maps/place/Kasbeer+Hall/data=!4m7!3m6!1s0x880fd3528caba71d:0xfbf80bec36c68b15!8m2!3d41.8973365!4d-87.6271474!16s%2Fg%2F12hsgdykf!19sChIJHaerjFLTD4gRFYvGNuwL-Ps?authuser=0&hl=en&rclk=1,https://lh5.googleusercontent.com/p/AF1QipM-punP14YTjaj8vmaXnQgUHBCwzVgl2Z16PHig=w80-h106-k-no
21,Giles Percy Alderman Special,"4909 W Division St, Chicago, IL",Convention center,3.8,8,,,41.90224086603258,-87.74875638485311,https://www.google.com/maps/place/Giles+Percy+Alderman+Special/data=!4m7!3m6!1s0x880fcccdda020c61:0x7e27174dc7bbf7d7!8m2!3d41.9019946!4d-87.7492541!16s%2Fg%2F12626q_tj!19sChIJYQwC2s3MD4gR1_e7x00XJ34?authuser=0&hl=en&rclk=1,https://lh5.googleusercontent.com/p/AF1QipNKnO8yc8LqWcEpbSr8RXDxGFEU_KbtgyklUXlE=w80-h106-k-no
22,Davinci Meeting Rooms,"Willis Tower, 233 S Wacker Dr, Chicago, IL",Conference center,5.0,2,Opens 9 AM Mon,I booked this conference room so that some fellow graduate students ...,41.878738049999995,-87.63596121188081,https://www.google.com/maps/place/Davinci+Meeting+Rooms/data=!4m7!3m6!1s0x880e2cbf1a659723:0x57646085fdbcd5ac!8m2!3d41.878888!4d-87.635876!16s%2Fg%2F12htrg2xh!19sChIJI5dlGr8sDogRrNW8_YVgZFc?authuser=0&hl=en&rclk=1,https://lh5.googleusercontent.com/p/AF1QipO5foJUubc7ZFZ3GexFnESSTHrrpyGz5eBJYoL-=w185-h92-k-no
23,The Library,"190 S La Salle St, Chicago, IL",Conference center,4.3,27,,,41.6761665,-87.6262242,https://www.google.com/maps/place/The+Library/data=!4m7!3m6!1s0x880e2cbc11cb037f:0xfb3255c4d2101b6e!8m2!3d41.8797572!4d-87.6326662!16s%2Fg%2F11c1pb7pyc!19sChIJfwPLEbwsDogRbhsQ0sRVMvs?authuser=0&hl=en&rclk=1,https://lh5.googleusercontent.com/p/AF1QipMVvbPPR5JjJMz3-02xOjokkvPH_8Q9MwEJ0Hrb=w80-h106-k-no
24,Donald E. Stephens Convention Center,"5555 N River Rd, Chicago, IL",Convention center,4.5,5013,,A really nice space for a conference,41.9739336,-87.8624305,https://www.google.com/maps/place/Donald+E.+Stephens+Convention+Center/data=!4m7!3m6!1s0x880fb5fd86e69343:0xf59638d2764bf12b!8m2!3d41.9792232!4d-87.861987!16zL20vMGdfN3Jq!19sChIJQ5Pmhv21D4gRK_FLdtI4lvU?authuser=0&hl=en&rclk=1,https://lh5.googleusercontent.com/p/AF1QipMFXNu7c-G3Cab2f1w_ulAF5PJ0chkOM_-NqH0B=w151-h92-k-no
25,Davinci Meeting Rooms,"1016 W Jackson Blvd, Chicago, IL",Conference center,5.0,4,Opens 9 AM Mon,"They booked a small room which felt intimate, yet clean and ...",41.8780178,-87.65273102256924,https://www.google.com/maps/place/Davinci+Meeting+Rooms/data=!4m7!3m6!1s0x880e2cddd0d00677:0x494bc057acc8225f!8m2!3d41.8780265!4d-87.6527249!16s%2Fg%2F1pp2vgfjf!19sChIJdwbQ0N0sDogRXyLIrFfAS0k?authuser=0&hl=en&rclk=1,https://lh5.googleusercontent.com/p/AF1QipPgbW0ocYeGP401FvUOv2lseAAyFty4SQ4S4Jxq=w120-h92-k-no
26,Total Coordination Pro,"7001 W North Ave # 101, Chicago, IL",Convention center,1.0,1,,,41.9111788,-87.6322658,https://www.google.com/maps/place/Total+Coordination+Pro/data=!4m7!3m6!1s0x880fcb3a0765a655:0xce24b8d4f9b813c9!8m2!3d41.9086251!4d-87.8013366!16s%2Fg%2F1vlqqtdc!19sChIJVaZlBzrLD4gRyRO4-dS4JM4?authuser=0&hl=en&rclk=1,https://streetviewpixels-pa.googleapis.com/v1/thumbnail?panoid=1IxKyZOYIEMpG6TOTHi9og&cb_client=search.gws-prod.gps&w=80&h=92&yaw=268.0603&pitch=0&thumbfov=100
27,The Conference Center,"1 N Wacker Dr, Chicago, IL",Conference center,4.4,14,,,41.8863329,-87.6283507,https://www.google.com/maps/place/The+Conference+Center/data=!4m7!3m6!1s0x880e2cb8e5b1f115:0x2421d143c956fa62!8m2!3d41.8824129!4d-87.6365234!16s%2Fg%2F11bv39zw53!19sChIJFfGx5bgsDogRYvpWyUPRISQ?authuser=0&hl=en&rclk=1,https://streetviewpixels-pa.googleapis.com/v1/thumbnail?panoid=XmgDr9M5EIjwm0MTSBLCPQ&cb_client=search.gws-prod.gps&w=80&h=92&yaw=184.90416&pitch=0&thumbfov=100
28,World Outreach Conference Center,"4 E 111th St, Chicago, IL",Conference center,4.4,19,,,41.6929443,-87.62256525599128,https://www.google.com/maps/place/World+Outreach+Conference+Center/data=!4m7!3m6!1s0x880e2402ef21da99:0xbbb03e8dbe179b53!8m2!3d41.692997!4d-87.6224212!16s%2Fg%2F12639b5dc!19sChIJmdoh7wIkDogRU5sXvo0-sLs?authuser=0&hl=en&rclk=1,https://lh5.googleusercontent.com/p/AF1QipM8nxJSuVFjjWDtT9zy_K0vKrK2rH2Nu5NgiKwh=w80-h106-k-no
29,Zenith Labor Net,"4910 S Rockwell St, Chicago, IL",Convention center,5.0,2,,,41.80414467563367,-87.68931117187147,https://www.google.com/maps/place/Zenith+Labor+Net/data=!4m7!3m6!1s0x880e2e1a5c91b5f9:0x6f5575608c3f1757!8m2!3d41.8039864!4d-87.6895043!16s%2Fg%2F1xgrnj6n!19sChIJ-bWRXBouDogRVxc_jGB1VW8?authuser=0&hl=en&rclk=1,https://lh5.googleusercontent.com/p/AF1QipONmc1oOG63X17jXD0YNtL2gHWCpxzaDWvxqhnC=w80-h142-k-no
30,Teamster City,"300 S Ashland Ave, Chicago, IL",Conference center,4.8,17,,Clean building and they allow us to hold our quarterly meetings here.,41.877499,-87.666883,https://www.google.com/maps/place/Teamster+City/data=!4m7!3m6!1s0x880e2d22b5d5394b:0xc4782c2da47c06be!8m2!3d41.877298!4d-87.6676743!16s%2Fg%2F11g72x_dct!19sChIJSznVtSItDogRvgZ8pC0seMQ?authuser=0&hl=en&rclk=1,https://lh5.googleusercontent.com/p/AF1QipNBTDrCrRZStlTSDoRq0WI514SfFywH4VpszInz=w80-h106-k-no
31,Conference Chicago,"525 S State St, Chicago, IL",Conference center,4.1,32,,This was our first training at Conference Chicago.,41.874897250000004,-87.62710836676914,https://www.google.com/maps/place/Conference+Chicago/data=!4m7!3m6!1s0x880e2c980c37b721:0xee238c1159a3f77a!8m2!3d41.8748314!4d-87.6274284!16s%2Fg%2F11xb5pjcj!19sChIJIbc3DJgsDogRevejWRGMI-4?authuser=0&hl=en&rclk=1,https://lh5.googleusercontent.com/p/AF1QipM2-tp_EnNZWlO68P_CmZSUpp-Q7nJPK3HXWzXj=w137-h92-k-no
32,Greenhouse Loft,"2545 W Diversey Ave, Chicago, IL",Conference center,4.8,195,Closes 12 AM,"Back in the main room, all the food was set up on one side of a divider and ...",41.93152465,-87.6918542501915,https://www.google.com/maps/place/Greenhouse+Loft/data=!4m7!3m6!1s0x880fd286af24ba35:0xaf3364d8884012b1!8m2!3d41.9319165!4d-87.6921749!16s%2Fg%2F1261__kb1!19sChIJNbokr4bSD4gRsRJAiNhkM68?authuser=0&hl=en&rclk=1,https://lh5.googleusercontent.com/p/AF1QipNVv4bQy9KLZiWPVCd9Bi8kEPw5ln49ANWaP3yX=w138-h92-k-no
33,Loft Lucia,"7 N Carpenter St, Chicago, IL",Conference center,4.7,213,Closes 12 AM,Our company conference was exceptional thanks to the overall ...,41.8818949216128,-87.65308984611346,https://www.google.com/maps/place/Loft+Lucia/data=!4m7!3m6!1s0x880e2cdbe0e5a797:0x7b2c00cc38548fe6!8m2!3d41.881989!4d-87.6530567!16s%2Fg%2F11g01_yt42!19sChIJl6fl4NssDogR5o9UOMwALHs?authuser=0&hl=en&rclk=1,https://lh5.googleusercontent.com/p/AF1QipP75Dkkc1VMillc49a5iLRu9qbNjNyFLWIn9-5I=w137-h92-k-no
34,UIC Visitors Center,"1220 W Harrison St, Chicago, IL",Conference center,4.4,27,Opens 9 AM Mon,,41.87429893362039,-87.65732313634697,https://www.google.com/maps/place/UIC+Visitors+Center/data=!4m7!3m6!1s0x880e2ce0243789d3:0x8cedbae5463791d5!8m2!3d41.8745743!4d-87.6582493!16s%2Fg%2F11cn5psf0g!19sChIJ04k3JOAsDogR1ZE3RuW67Yw?authuser=0&hl=en&rclk=1,https://lh5.googleusercontent.com/p/AF1QipPRnR8ki6MNv1UDZ5HfvYjUOTomGN2EMYDCmpDz=w80-h106-k-no
35,Lawndale Christian Health Center The Gallery,"3824 W Ogden Ave, Chicago, IL",Conference center,4.8,16,Closes 9 PM,,41.8527138,-87.7208578,https://www.google.com/maps/place/Lawndale+Christian+Health+Center+The+Gallery/data=!4m7!3m6!1s0x880e325e993cceab:0x6d697202726009f6!8m2!3d41.8527226!4d-87.7208803!16s%2Fg%2F11g7y83c9c!19sChIJq848mV4yDogR9glgcgJyaW0?authuser=0&hl=en&rclk=1,https://lh5.googleusercontent.com/p/AF1QipNpwDsyXDQoFCLlMacaCfsj9MkvvZ7WQ3_8ojda=w88-h92-k-no
36,CityPoint Loft,"4338 S Prairie Ave, Chicago, IL",Conference center,4.4,62,Closes 8 PM,,41.8158555633321,-87.61988187744011,https://www.google.com/maps/place/CityPoint+Loft/data=!4m7!3m6!1s0x880e2c7ea6306acd:0xe1b5a5e44af86d0a!8m2!3d41.8154052!4d-87.6201288!16s%2Fg%2F1w665_fg!19sChIJzWowpn4sDogRCm34SuSlteE?authuser=0&hl=en&rclk=1,https://lh5.googleusercontent.com/p/AF1QipNlqbSSk3IFp3iVqCH3HZVBDeHk4LlluTqK4hm9=w136-h92-k-no
37,Expansive Superior,"405 W Superior St, Chicago, IL",Conference center,4.4,40,,Onsite services,41.895448828633846,-87.6388617560284,https://www.google.com/maps/place/Expansive+Superior/data=!4m7!3m6!1s0x880e2dba249d99af:0x4b013cd300887987!8m2!3d41.8952471!4d-87.6389828!16s%2Fg%2F11h2k3n8q7!19sChIJr5mdJLotDogRh3mIANM8AUs?authuser=0&hl=en&rclk=1,https://lh5.googleusercontent.com/p/AF1QipMDd-P0YRmcrB3KniJuyzPtzx52sC2KwEk-ot9c=w163-h92-k-no
38,Expansive 100 S. State Street,"100 S State St, Chicago, IL",Conference center,5.0,6,,Onsite services,41.8806059,-87.6283395,https://www.google.com/maps/place/Expansive+100+S.+State+Street/data=!4m7!3m6!1s0x880e2d268024d541:0xde4c96a0c9856f7!8m2!3d41.8805613!4d-87.6280927!16s%2Fg%2F11rgh6432v!19sChIJQdUkgCYtDogR91aYDGrJ5A0?authuser=0&hl=en&rclk=1,https://lh5.googleusercontent.com/p/AF1QipO1wi0PGtJR5LTLTTT1kNm4c0Ley9bNu21KL576=w137-h92-k-no
39,Expansive West Loop,"318 W Adams St, Chicago, IL",Conference center,4.4,66,,Onsite services,41.8794787,-87.6361117,https://www.google.com/maps/place/Expansive+West+Loop/data=!4m7!3m6!1s0x880e2cbf216b5fe7:0xbb3cc0b2ad3085c8!8m2!3d41.8796844!4d-87.6360405!16s%2Fg%2F1q64tkgtb!19sChIJ519rIb8sDogRyIUwrbLAPLs?authuser=0&hl=en&rclk=1,https://lh5.googleusercontent.com/p/AF1QipNfwJEQSARJnMg63bUQjgMecv11nEO9hNxHs06L=w138-h92-k-no
40,Fountain Blue Banquets & Conference Center,"2300 Mannheim Rd, Chicago, IL",Conference center,4.5,180,Opens 10 AM Sun,,41.9949923,-87.8846131,https://www.google.com/maps/place/Fountain+Blue+Banquets+%26+Conference+Center/data=!4m7!3m6!1s0x880fb6505110a01d:0xc5459439e3114fb8!8m2!3d42.0113573!4d-87.8871484!16s%2Fg%2F1thcnc9r!19sChIJHaAQUVC2D4gRuE8R4zmURcU?authuser=0&hl=en&rclk=1,https://lh5.googleusercontent.com/p/AF1QipP88FQqiO8oBw6UAjDKOUNSbpbmdG8WQn8gQ-Yv=w122-h92-k-no
41,Expansive The Loop,"73 W Monroe St, Chicago, IL",Conference center,4.6,58,,Onsite services,41.880357399999994,-87.63028205963771,https://www.google.com/maps/place/Expansive+The+Loop/data=!4m7!3m6!1s0x880e2cbc9d4207af:0xb2b01925b0dc52e7!8m2!3d41.8804017!4d-87.6302038!16s%2Fg%2F1pp2vc8s_!19sChIJrwdCnbwsDogR51LcsCUZsLI?authuser=0&hl=en&rclk=1,https://lh5.googleusercontent.com/p/AF1QipM5ubqNEvOXAcM6UGA45GdcEcUGlcoMFAYTK-6o=w138-h92-k-no
42,Illini Center,"200 S Wacker Dr, Chicago, IL",Conference center,4.3,6,Opens 8:30 AM Mon,,41.878939349999996,-87.63735328867418,https://www.google.com/maps/place/Illini+Center/data=!4m7!3m6!1s0x880e2cbf6ac71899:0xe2fe46c158ac85cb!8m2!3d41.8791193!4d-87.6376376!16s%2Fg%2F1tffpy8n!19sChIJmRjHar8sDogRy4WsWMFG_uI?authuser=0&hl=en&rclk=1,https://lh5.googleusercontent.com/p/AF1QipOWOfHNZT8IG41pJ379ozrU4Dwd97ElIkv2nxIf=w122-h92-k-no
43,Expansive Wacker,"211 W Wacker Dr, Chicago, IL",Conference center,4.9,39,,Onsite services,41.8807039,-87.6369978,https://www.google.com/maps/place/Expansive+Wacker/data=!4m7!3m6!1s0x880e2cb741b10f6f:0xf8afc56780b73a18!8m2!3d41.88645!4d-87.6346047!16s%2Fg%2F11byypg97t!19sChIJbw-xQbcsDogRGDq3gGfFr_g?authuser=0&hl=en&rclk=1,https://lh5.googleusercontent.com/p/AF1QipN1-rY5f5MsLiCJataY4FYNdwuHalWNU69z_B08=w138-h92-k-no
44,University Club of Chicago,"76 E Monroe St, Chicago, IL",Event venue,4.7,585,,I enjoy using the business center for work.,41.88101385,-87.62497142011328,https://www.google.com/maps/place/University+Club+of+Chicago/data=!4m7!3m6!1s0x880e2ca46d0802f7:0xb377915d20d85aa!8m2!3d41.880947!4d-87.624957!16s%2Fm%2F04cy9_k!19sChIJ9wIIbaQsDogRqoUN0hV5Nws?authuser=0&hl=en&rclk=1,https://lh5.googleusercontent.com/p/AF1QipN1i3GRbfvdtLtHpZrlqkJvUQzwXI7r2zbIzQn7=w163-h92-k-no
45,Row 24 Chicago,"2411 S Michigan Ave, Chicago, IL",Event venue,4.7,159,Closes 12 AM,... to Chicago from around the world for the ASCO,41.8488848,-87.62331159899482,https://www.google.com/maps/place/Row+24+Chicago/data=!4m7!3m6!1s0x880e2c7963e2810b:0xd94aa5a5b0ad8fb7!8m2!3d41.848917!4d-87.623313!16s%2Fg%2F11dzw85x11!19sChIJC4HiY3ksDogRt4-tsKWlStk?authuser=0&hl=en&rclk=1,https://lh5.googleusercontent.com/p/AF1QipN_OxzqbcY43F458XbeqazCtiZHlrvEE0fS3kdY=w122-h92-k-no
46,Venue West,"221 N Paulina St, Chicago, IL",Event venue,4.7,222,,... held a national work,41.8858422858154,-87.66932881632893,https://www.google.com/maps/place/Venue+West/data=!4m7!3m6!1s0x880e2cd98c870e6f:0xe923d7f3b6850869!8m2!3d41.8860204!4d-87.669231!16s%2Fg%2F12vqrx6xh!19sChIJbw6HjNksDogRaQiFtvPXI-k?authuser=0&hl=en&rclk=1,https://lh5.googleusercontent.com/p/AF1QipMr3ry8klcG3EeTHXe3stTKwtF72mfb1D0PcT4b=w122-h92-k-no
47,Copernicus Center,"5216 W Lawrence Ave, Chicago, IL",Conference center,4.5,1729,Opens 8 AM Mon,Amazing place for concerts and conferences.,41.96823965,-87.75852173338228,https://www.google.com/maps/place/Copernicus+Center/data=!4m7!3m6!1s0x880fcc19b59aa347:0x3724378dfabc9f4b!8m2!3d41.9682754!4d-87.7588182!16s%2Fm%2F02w2_p8!19sChIJR6OatRnMD4gRS5-8-o03JDc?authuser=0&hl=en&rclk=1,https://lh5.googleusercontent.com/p/AF1QipM_CHT2IGSb6vHY1V9vR-Ar2JhCqecpR9TN6Y0=w163-h92-k-no
48,The Joinery,"2533 W Homer St, Chicago, IL",Event venue,4.7,123,Closes 12 AM,,41.91655924373402,-87.6906866132302,https://www.google.com/maps/place/The+Joinery/data=!4m7!3m6!1s0x880fd2989e18eb9b:0xe76c8d54c4715e2f!8m2!3d41.9165208!4d-87.6911874!16s%2Fg%2F11c2nrn886!19sChIJm-sYnpjSD4gRL15xxFSNbOc?authuser=0&hl=en&rclk=1,https://lh5.googleusercontent.com/p/AF1QipNHfU48f2Iv3GASwIl9O2tPOS8UOUFtK3ecFNP7=w138-h92-k-no
49,The Geraghty,"2520 S Hoyne Ave, Chicago, IL",Conference center,4.7,332,Opens 8:30 AM Mon,It was sectioned perfectly for the conference's day to day operation.,41.84721442911841,-87.67826963662178,https://www.google.com/maps/place/The+Geraghty/data=!4m7!3m6!1s0x880e2d9801f51a83:0xd0f818d84254abcf!8m2!3d41.8457036!4d-87.6786352!16s%2Fg%2F11b861mf7x!19sChIJgxr1AZgtDogRz6tUQtgY-NA?authuser=0&hl=en&rclk=1,https://lh5.googleusercontent.com/p/AF1QipMFaAhQ-kDTcB99OAJ-ZntH9vMU-EyPgTlp-TFJ=w138-h92-k-no
50,Morgan's on Fulton,"950 W Fulton St, Chicago, IL",Conference center,4.7,154,Opens 10 AM Mon,"The ceremony room was indoors but sunlit and beautiful, however ...",41.88683070437843,-87.65142029327505,https://www.google.com/maps/place/Morgan%27s+on+Fulton/data=!4m7!3m6!1s0x880e2cd0921a7da9:0xf17844a2d8c2675!8m2!3d41.886913!4d-87.6519584!16s%2Fg%2F11c3k9x_fx!19sChIJqX0aktAsDogRdSaMLUqEFw8?authuser=0&hl=en&rclk=1,https://lh5.googleusercontent.com/p/AF1QipMtX82_KZbL2me6cnXqdbMgMij6dwojsVgL4h4O=w163-h92-k-no
51,Marriott Marquis Chicago,"2121 S Prairie Ave, Chicago, IL",4-star hotel,4.6,3130,,Extremely convenient to the McCormick,41.8539444,-87.6203557,https://www.google.com/maps/place/Marriott+Marquis+Chicago/data=!4m7!3m6!1s0x880e2c7faee6dc13:0x3431ad87f88215cd!8m2!3d41.8540186!4d-87.6205363!16s%2Fg%2F11cs1f408n!19sChIJE9zmrn8sDogRzRWC-IetMTQ?authuser=0&hl=en&rclk=1,https://lh5.googleusercontent.com/p/AF1QipNFegJyZJ2moe3N2y96JmK59L-Gj_J-k3lIzkk=w138-h92-k-no
52,"InterContinental Chicago Magnificent Mile, an IHG Hotel","505 N Michigan Ave, Chicago, IL",4-star hotel,4.4,4685,,The catering food at the conference was very good.,41.8913503,-87.62356451894273,"https://www.google.com/maps/place/InterContinental+Chicago+Magnificent+Mile,+an+IHG+Hotel/data=!4m7!3m6!1s0x880e2cac0e1257b9:0x828ce9c1f3602ee3!8m2!3d41.8911399!4d-87.6238708!16s%2Fm%2F027cw84!19sChIJuVcSDqwsDogR4y5g88HpjII?authuser=0&hl=en&rclk=1",https://lh5.googleusercontent.com/p/AF1QipOnFWBAFYfA_dtdodCQZRWou1SkE1TsfI7W2bMr=w138-h92-k-no
53,Wacker Drive Executive Suites,"125 S Wacker Dr, Chicago, IL",Conference center,4.2,5,,,41.87972465,-87.63640256245863,https://www.google.com/maps/place/Wacker+Drive+Executive+Suites/data=!4m7!3m6!1s0x880e2cbf30f99975:0xbcd91f448439ee71!8m2!3d41.8797321!4d-87.6364234!16s%2Fg%2F1wb8v8fp!19sChIJdZn5ML8sDogRce45hEQf2bw?authuser=0&hl=en&rclk=1,https://lh5.googleusercontent.com/p/AF1QipPhmMEx6ZZh6eKLUKK-YN7GEeu5OtAS1Kb9iKqB=w163-h92-k-no
54,The Ivy Hotel,"233 E Ontario St, Chicago, IL",4-star hotel,4.1,1028,,Stayed here for a few nights while in town for a conference.,41.8931561,-87.62139562670986,https://www.google.com/maps/place/The+Ivy+Hotel/data=!4m7!3m6!1s0x880e2cab049f2c35:0x3249de2ba1b9e82b!8m2!3d41.8932083!4d-87.6214611!16s%2Fg%2F1hc27g5rb!19sChIJNSyfBKssDogRK-i5oSveSTI?authuser=0&hl=en&rclk=1,https://lh5.googleusercontent.com/p/AF1QipMI-9afK-Nqnm8etc7KmQj97O7T-6d0YPEFRhCD=w138-h92-k-no
55,Loews Chicago Hotel,"455 N Park Dr, Chicago, IL",4-star hotel,4.6,3581,,A perfect location for a small conference.,41.889967150000004,-87.61883289439947,https://www.google.com/maps/place/Loews+Chicago+Hotel/data=!4m7!3m6!1s0x880e2ca9ff481693:0x7be18d3e71cce3ec!8m2!3d41.8901907!4d-87.6190808!16s%2Fg%2F11b6hkmbgk!19sChIJkxZI_6ksDogR7OPMcT6N4Xs?authuser=0&hl=en&rclk=1,https://lh3.googleusercontent.com/gps-proxy/ALd4DhGX3Y65uji90fyEpNPeC4NDfMIodo5Noov1Kbqku9MV3f1nKidpGONC9VQDEM_iDjUza5-ReqNPLO20BC7fyN_iyBmMlNFXD4TQ0NlvLYXjUgtilYMWXatXcDl_ZemWoa5yF4z7F92_sUiWYYQSai2A8X6iSNOzZsoyCFGIb8qZuhmD-7JToUf0=w138-h92-k-no
56,The Wheeler Mansion,"2020 S Calumet Ave, Chicago, IL",4-star hotel,4.2,114,,A 6-minute drive from McCormick Place,41.8549031,-87.61941628954041,https://www.google.com/maps/place/The+Wheeler+Mansion/data=!4m7!3m6!1s0x880e2c7fe3ff3aed:0x355f9387d2b8d9c7!8m2!3d41.8549017!4d-87.619381!16s%2Fm%2F02vl2hb!19sChIJ7Tr_438sDogRx9m40oeTXzU?authuser=0&hl=en&rclk=1,https://lh5.googleusercontent.com/p/AF1QipMXnSEvCJKNxIcjdV2R1HLOlvx4TO8u2S6uRO7i=w80-h106-k-no
57,"Crowne Plaza Chicago West Loop, an IHG Hotel","25 S Halsted St, Chicago, IL",4-star hotel,3.9,2559,,Conference layout was phenomenal,41.8809008,-87.6471663,"https://www.google.com/maps/place/Crowne+Plaza+Chicago+West+Loop,+an+IHG+Hotel/data=!4m7!3m6!1s0x880e2cc49655b94d:0xc0bca375f7cf0548!8m2!3d41.880866!4d-87.6469826!16s%2Fg%2F1tdr3x7h!19sChIJTblVlsQsDogRSAXP93WjvMA?authuser=0&hl=en&rclk=1",https://lh5.googleusercontent.com/p/AF1QipNFGl1mru9rk85J5cA8txQliVyf0v3OIbHgTaFt=w138-h92-k-no
58,Loft Lucia,"7 N Carpenter St, Chicago, IL",Event venue,4.7,213.0,Closes 12 AM,Loft Lucia was a fantastic space for our,41.8818949216128,-87.65308984611346,https://www.google.com/maps/place/Loft+Lucia/data=!4m7!3m6!1s0x880e2cdbe0e5a797:0x7b2c00cc38548fe6!8m2!3d41.881989!4d-87.6530567!16s%2Fg%2F11g01_yt42!19sChIJl6fl4NssDogR5o9UOMwALHs?authuser=0&hl=en&rclk=1,https://lh5.googleusercontent.com/p/AF1QipOfdrLtFBI2_Hc7oRnEK3Z2pKbSw2pCODs9Tato=w138-h92-k-no
59,Mae District,"19 E 21st St, Chicago, IL",Event venue,4.7,70.0,Closes 1 AM,The staff is,41.85389515,-87.62627828417297,https://www.google.com/maps/place/Mae+District/data=!4m7!3m6!1s0x880e2c7d0ba1ed5b:0x8c04a1b2998affc3!8m2!3d41.8538879!4d-87.6262462!16s%2Fg%2F11b7q667k6!19sChIJW-2hC30sDogRw_-KmbKhBIw?authuser=0&hl=en&rclk=1,https://lh5.googleusercontent.com/p/AF1QipPegWUWJ7zWLpbt2cVodXYQNRhxNvTO6CTj_v3f=w115-h92-k-no
60,Chicago Illuminating Company,"2110 S Wabash Ave, Chicago, IL",Event venue,4.2,62.0,Closes 10 PM,,41.854075449999996,-87.62592949941228,https://www.google.com/maps/place/Chicago+Illuminating+Company/data=!4m7!3m6!1s0x405d76a491060b69:0xfadda5b4773610f9!8m2!3d41.8539369!4d-87.6259044!16s%2Fg%2F11b7hk7y6p!19sChIJaQsGkaR2XUAR-RA2d7Sl3fo?authuser=0&hl=en&rclk=1,https://lh5.googleusercontent.com/p/AF1QipPRGpnV0avTg9vgwVD5orzWVP4UwH8PZ3iIBmTy=w138-h92-k-no
61,Lacuna Lofts,"2150 S Canalport Ave, Chicago, IL",Event venue,4.5,513.0,Closes 5 PM,These people are,41.8532799,-87.6504021,https://www.google.com/maps/place/Lacuna+Lofts/data=!4m7!3m6!1s0x880e2c57067cce73:0xea991acaae04663f!8m2!3d41.8533599!4d-87.650391!16s%2Fg%2F1q5gmry50!19sChIJc858BlcsDogRP2YErsoameo?authuser=0&hl=en&rclk=1,https://lh5.googleusercontent.com/p/AF1QipPW_m_RYdPH8GUfSWo_AyfyKO4u8UH3ImYkDjcX=w138-h92-k-no
62,Row 24 Chicago,"2411 S Michigan Ave, Chicago, IL",Event venue,4.7,159.0,Closes 12 AM,"Beautiful, elegant, classy,",41.8488848,-87.62331159899482,https://www.google.com/maps/place/Row+24+Chicago/data=!4m7!3m6!1s0x880e2c7963e2810b:0xd94aa5a5b0ad8fb7!8m2!3d41.848917!4d-87.623313!16s%2Fg%2F11dzw85x11!19sChIJC4HiY3ksDogRt4-tsKWlStk?authuser=0&hl=en&rclk=1,https://lh5.googleusercontent.com/p/AF1QipOm0oGEfXloE3UW8UfLFaDuDZzQEJYIK8adYzDu=w122-h92-k-no
63,The Ivy Room At Tree Studios,"12 E Ohio St # 100, Chicago, IL",Event venue,4.7,125.0,Closes 6 PM,"I'm sure it's as expensive as hell, but I was there in a",41.892559778509074,-87.6275675533463,https://www.google.com/maps/place/The+Ivy+Room+At+Tree+Studios/data=!4m7!3m6!1s0x880e2cad9f2254b5:0x648fa51efbbfedb7!8m2!3d41.892637!4d-87.627535!16s%2Fg%2F1tfrbrzg!19sChIJtVQin60sDogRt-2_-x6lj2Q?authuser=0&hl=en&rclk=1,https://lh5.googleusercontent.com/p/AF1QipNNIA4r8MYvr-1kf2OzP-qHlGZ2FvsWQJ9paOqr=w122-h92-k-no
64,The Fulton West Event Venue,"319 N Western Ave, Chicago, IL",Event venue,5.0,9.0,Closes 10 PM,"The event venue is perfect for baby showers, birthdays,",41.8871898,-87.68621559443957,https://www.google.com/maps/place/The+Fulton+West+Event+Venue/data=!4m7!3m6!1s0x880e2d40ee145463:0x838e060f9bf3ade9!8m2!3d41.8872304!4d-87.6862745!16s%2Fg%2F11stf3cq0x!19sChIJY1QU7kAtDogR6a3zmw8GjoM?authuser=0&hl=en&rclk=1,https://lh5.googleusercontent.com/p/AF1QipOC0J5lqsJ39-B0kvvEcOJ1mwj2OQayvuPiWeEq=w80-h120-k-no
65,Walden,"2145 W Walnut St, Chicago, IL",Event venue,4.7,121.0,Closes 2 AM,"The staff is exceptional, very welcoming, and",41.88572233126173,-87.68032004156161,https://www.google.com/maps/place/Walden/data=!4m7!3m6!1s0x880fd3dfd377448d:0x531b08dea227497d!8m2!3d41.8857214!4d-87.6810857!16s%2Fg%2F11fn62btyw!19sChIJjUR309_TD4gRfUknot4IG1M?authuser=0&hl=en&rclk=1,https://lh5.googleusercontent.com/p/AF1QipM1Bw5pSA3O82WTge2FWo6gEgh1_ujAjfSlU_pr=w163-h92-k-no
66,Loft606,"2605 W Armitage Ave, Chicago, IL",Event venue,4.3,22.0,,From the Cornhole boards to the,41.917238850000004,-87.6927149235215,https://www.google.com/maps/place/Loft606/data=!4m7!3m6!1s0x880fd29f4b4fd8db:0xc84781c03d981643!8m2!3d41.9173559!4d-87.692658!16s%2Fg%2F11h3vbm6bq!19sChIJ29hPS5_SD4gRQxaYPcCBR8g?authuser=0&hl=en&rclk=1,https://lh5.googleusercontent.com/p/AF1QipNPKihx2qN5vbKkxrX1W6YOWl7ghwDoqoqfiY9w=w138-h92-k-no
67,Prery Event Space,"1720 N Damen Ave, Chicago, IL",Event venue,5.0,7.0,Closes 12 AM,... Santa's lap and take,41.9128063,-87.6777017,https://www.google.com/maps/place/Prery+Event+Space/data=!4m7!3m6!1s0x880fd3310e86758f:0x9b0e73f05432905f!8m2!3d41.9130396!4d-87.6777963!16s%2Fg%2F11ry5jl8z3!19sChIJj3WGDjHTD4gRX5AyVPBzDps?authuser=0&hl=en&rclk=1,https://lh5.googleusercontent.com/p/AF1QipPtcxoLq8HJ2nmqaAMyQjErgD5BY9cFIGkLMwF9=w122-h92-k-no
68,Ovation Chicago,"2324 W Fulton St, Chicago, IL",Event venue,4.8,286.0,Closes 12 AM,Excellent staff and,41.88703515,-87.6849974285083,https://www.google.com/maps/place/Ovation+Chicago/data=!4m7!3m6!1s0x880e2d4f78624979:0xb57760159dd0987a!8m2!3d41.8870112!4d-87.6850024!16s%2Fg%2F11b6hyppmx!19sChIJeUlieE8tDogRepjQnRVgd7U?authuser=0&hl=en&rclk=1,https://lh5.googleusercontent.com/p/AF1QipMvCUmZ6VJFOEcsATjCV6UrVEGYQ0UPhcV6lHIA=w137-h92-k-no
69,The Joinery,"2533 W Homer St, Chicago, IL",Event venue,4.7,123.0,Closes 12 AM,"Very clean, staff is",41.91655924373402,-87.6906866132302,https://www.google.com/maps/place/The+Joinery/data=!4m7!3m6!1s0x880fd2989e18eb9b:0xe76c8d54c4715e2f!8m2!3d41.9165208!4d-87.6911874!16s%2Fg%2F11c2nrn886!19sChIJm-sYnpjSD4gRL15xxFSNbOc?authuser=0&hl=en&rclk=1,https://lh5.googleusercontent.com/p/AF1QipN5YGt34PBt0DQwzhD0f9mbAuffdvv1LxrjqyWr=w138-h92-k-no
70,Venue West,"221 N Paulina St, Chicago, IL",Event venue,4.7,222.0,,Michael is very responsive and extremely,41.8858422858154,-87.66932881632893,https://www.google.com/maps/place/Venue+West/data=!4m7!3m6!1s0x880e2cd98c870e6f:0xe923d7f3b6850869!8m2!3d41.8860204!4d-87.669231!16s%2Fg%2F12vqrx6xh!19sChIJbw6HjNksDogRaQiFtvPXI-k?authuser=0&hl=en&rclk=1,https://lh5.googleusercontent.com/p/AF1QipPC_y1qBmme4-6xtafHfPl6dQ3UP6xJ9XOdQMfp=w149-h92-k-no
71,Room 1520,"1520 W Fulton St, Chicago, IL",Event venue,4.4,148.0,,Very,41.886734149999995,-87.66519332640783,https://www.google.com/maps/place/Room+1520/data=!4m7!3m6!1s0x880e2d2f79bf40d7:0x2b0f75e4199df1fd!8m2!3d41.8867352!4d-87.665345!16s%2Fg%2F1hm3c99kx!19sChIJ10C_eS8tDogR_fGdGeR1Dys?authuser=0&hl=en&rclk=1,https://lh5.googleusercontent.com/p/AF1QipOEpid8xCsWhlkWdazeLqQ2lsSJdFY5Xyl9wYWV=w138-h92-k-no
72,The Study Chicago,"1837 W Fulton St, Chicago, IL",Event venue,4.7,15.0,Closes 8 PM,... the most,41.886646299999995,-87.67334610229548,https://www.google.com/maps/place/The+Study+Chicago/data=!4m7!3m6!1s0x880e2d37513ba3eb:0xd71929d156a1e2f9!8m2!3d41.886597!4d-87.67332!16s%2Fg%2F11b6tqmwy9!19sChIJ66M7UTctDogR-eKhVtEpGdc?authuser=0&hl=en&rclk=1,https://lh5.googleusercontent.com/p/AF1QipNKXmSYPDK5ae04GugtiVM3XQjOaxeCSIYoMP-z=w152-h92-k-no
73,The School House,"1065 N Orleans St, Chicago, IL",Event venue,4.7,27.0,Closes 10 PM,What a unique space run by awesome people!,41.9016442,-87.6371406,https://www.google.com/maps/place/The+School+House/data=!4m7!3m6!1s0x880fd3d31396ef89:0x1d63ec00f8238178!8m2!3d41.9016967!4d-87.6370684!16s%2Fg%2F11s9q3y8mb!19sChIJie-WE9PTD4gReIEj-ADsYx0?authuser=0&hl=en&rclk=1,https://lh5.googleusercontent.com/p/AF1QipNpOKDUCUWwZE6COQESMPCsTr9FFq-g6g9KPEoV=w122-h92-k-no
74,LM Studio Chicago,"808 S Michigan Ave, Chicago, IL",Event venue,5.0,20.0,,Paulette and her team were both,41.8717971,-87.6242674,https://www.google.com/maps/place/LM+Studio+Chicago/data=!4m7!3m6!1s0x880e2d766f3a5c1f:0x98bef7e65f0fc480!8m2!3d41.8714913!4d-87.6245734!16s%2Fg%2F11ngpkvnk_!19sChIJH1w6b3YtDogRgMQPX-b3vpg?authuser=0&hl=en&rclk=1,https://lh5.googleusercontent.com/p/AF1QipNKXSE1OuLYiXxSbUjkMfIq1vaZAgqPAD0nONU=w138-h92-k-no
75,Venue SIX10,"610 S Michigan Ave, Chicago, IL",Conference center,4.6,222.0,,... to work with and equally as,41.87401745,-87.62480016554254,https://www.google.com/maps/place/Venue+SIX10/data=!4m7!3m6!1s0x880e2c98c7789d2b:0xa1b99cfdb396e384!8m2!3d41.8740081!4d-87.6246643!16s%2Fg%2F1hc9wxg8r!19sChIJK514x5gsDogRhOOWs_2cuaE?authuser=0&hl=en&rclk=1,https://lh5.googleusercontent.com/p/AF1QipPxeMBsxBTc8F5Eiu-X1moAbJbK-wcYemyAHZQB=w122-h92-k-no
76,Galleria Marchetti,"825 W Erie St, Chicago, IL",Event venue,4.4,329.0,,I would highly recommend any,41.8931683,-87.64851304609331,https://www.google.com/maps/place/Galleria+Marchetti/data=!4m7!3m6!1s0x880e2cd2629ed2b9:0xf1a2b3b14762687d!8m2!3d41.8932121!4d-87.6485172!16s%2Fg%2F1tdnfvkh!19sChIJudKeYtIsDogRfWhiR7GzovE?authuser=0&hl=en&rclk=1,https://lh5.googleusercontent.com/p/AF1QipO1EU4H4-prVl5l_MDYArzs80pBpMLYKqjc8IK8=w138-h92-k-no
77,Concord FiftyFive,"1355 W Concord Pl, Chicago, IL",Event venue,4.4,46.0,,"... and out, and Carissa and her team were incredibly",41.912069,-87.661822,https://www.google.com/maps/place/Concord+FiftyFive/data=!4m7!3m6!1s0x880fd2debb70d153:0xb1a62922305042c5!8m2!3d41.9117074!4d-87.6623102!16s%2Fg%2F11c1l7h4w2!19sChIJU9Fwu97SD4gRxUJQMCIpprE?authuser=0&hl=en&rclk=1,https://lh5.googleusercontent.com/p/AF1QipOuNSSglabVz9nGA4SGMpphEsySWFbw8TPnABlG=w122-h92-k-no
78,Revel Motor Row,"2400 S Michigan Ave, Chicago, IL",Event venue,4.5,101.0,,... it is filled with a truly,41.8489728,-87.62438306496529,https://www.google.com/maps/place/Revel+Motor+Row/data=!4m7!3m6!1s0x880e2c7be07b52b7:0x9e96822b8fe6b4d1!8m2!3d41.8490409!4d-87.6243896!16s%2Fg%2F11b8_rbx36!19sChIJt1J74HssDogR0bTmjyuClp4?authuser=0&hl=en&rclk=1,https://lh5.googleusercontent.com/p/AF1QipMbw6MX8bQ5fpu6m0OLd42gT5pvxkLGbv7DdYM0=w138-h92-k-no
79,Moonlight Studios,"1446 W Kinzie St, Chicago, IL",Event venue,4.4,123.0,Opens 9 AM Mon,Everyone loved the space.,41.888949461538466,-87.66433423076923,https://www.google.com/maps/place/Moonlight+Studios/data=!4m7!3m6!1s0x880e2d2edd2a8edb:0x23f4dfa190aabf3b!8m2!3d41.8888663!4d-87.6643576!16s%2Fg%2F1ptwd74qz!19sChIJ244q3S4tDogRO7-qkKHf9CM?authuser=0&hl=en&rclk=1,https://lh5.googleusercontent.com/p/AF1QipMphEhTGpdkapWkTCDK0sv8oowg-t4oS_rJ2Tqp=w122-h92-k-no
80,Loft on Lake,"1366 W Lake St, Chicago, IL",Event venue,4.7,143.0,Opens 12 PM Thu,"Amazing venue,",41.8857227,-87.6614708240854,https://www.google.com/maps/place/Loft+on+Lake/data=!4m7!3m6!1s0x880e2d26245761b9:0x502873f30ec67d7b!8m2!3d41.8856551!4d-87.6614605!16s%2Fg%2F1tg_xp2h!19sChIJuWFXJCYtDogRe33GDvNzKFA?authuser=0&hl=en&rclk=1,https://lh5.googleusercontent.com/p/AF1QipO40sFyZPk6fsimJDUEKKPQQk4UUS_XLDgT37J3=w138-h92-k-no
81,Morgan's on Fulton,"950 W Fulton St, Chicago, IL",Event venue,4.7,154.0,Opens 10 AM Mon,"Kasey was kind, transparent,",41.88683070437843,-87.65142029327505,https://www.google.com/maps/place/Morgan%27s+on+Fulton/data=!4m7!3m6!1s0x880e2cd0921a7da9:0xf17844a2d8c2675!8m2!3d41.886913!4d-87.6519584!16s%2Fg%2F11c3k9x_fx!19sChIJqX0aktAsDogRdSaMLUqEFw8?authuser=0&hl=en&rclk=1,https://lh5.googleusercontent.com/p/AF1QipOLJ72x69WqlHmPvssl5FR3nj59Yb71Ms2rtcEe=w80-h106-k-no
82,G314chi,"1454 S Michigan Ave, Chicago, IL",Event venue,4.0,8.0,Closes 5 PM,We utilized G314Chi for our,41.8624851,-87.62432745000001,https://www.google.com/maps/place/G314chi/data=!4m7!3m6!1s0x880e2deaba570bd9:0xddce127854006988!8m2!3d41.8624936!4d-87.6244691!16s%2Fg%2F11rdcx_50p!19sChIJ2QtXuuotDogRiGkAVHgSzt0?authuser=0&hl=en&rclk=1,https://lh5.googleusercontent.com/p/AF1QipNCNBZWxbyatnpeUlAl2ohn6WGxEf1K9VZ98XKm=w80-h98-k-no
83,The Geraghty,"2520 S Hoyne Ave, Chicago, IL",Event venue,4.7,332.0,Opens 8:30 AM Mon,Any type of event from,41.84721442911841,-87.67826963662178,https://www.google.com/maps/place/The+Geraghty/data=!4m7!3m6!1s0x880e2d9801f51a83:0xd0f818d84254abcf!8m2!3d41.8457036!4d-87.6786352!16s%2Fg%2F11b861mf7x!19sChIJgxr1AZgtDogRz6tUQtgY-NA?authuser=0&hl=en&rclk=1,https://lh5.googleusercontent.com/p/AF1QipMFaAhQ-kDTcB99OAJ-ZntH9vMU-EyPgTlp-TFJ=w138-h92-k-no
84,Penthouse 111 Unit 2,"111 W Jackson Blvd, Chicago, IL",Event venue,4.3,11.0,Opens 10 AM Mon,Extremely,41.8779972,-87.6314354,https://www.google.com/maps/place/Penthouse+111+Unit+2/data=!4m7!3m6!1s0x880e2cbdac9ebc11:0xbabc62d316a2b6d7!8m2!3d41.8778481!4d-87.6313269!16s%2Fg%2F11c6_vvsl0!19sChIJEbyerL0sDogR17aiFtNivLo?authuser=0&hl=en&rclk=1,https://lh5.googleusercontent.com/p/AF1QipMfbFriQPA8J1cU1YWAtpIasjhqfaU4Bvk07H0t=w122-h92-k-no
85,Fairlie,"339 N Bell Ave, Chicago, IL",Event venue,4.9,104.0,,The staff were all very,41.88725228874831,-87.68280996351531,https://www.google.com/maps/place/Fairlie/data=!4m7!3m6!1s0x880e2d48ccbd4145:0x3642d3dbd12c29d7!8m2!3d41.8880885!4d-87.6829089!16s%2Fg%2F11h7nbndbh!19sChIJRUG9zEgtDogR1yks0dvTQjY?authuser=0&hl=en&rclk=1,https://lh5.googleusercontent.com/p/AF1QipMvvHy73Q8hkVSoyt-sDc83xHSIOLjEVtbw5Ob-=w80-h98-k-no
86,Convene,"311 W Monroe St, Chicago, IL",Event venue,4.6,13.0,Opens 8 AM Mon,,41.880212549999996,-87.63572633486339,https://www.google.com/maps/place/Convene/data=!4m7!3m6!1s0x880e2d3e16f2c25f:0x633b25d1ca98bed2!8m2!3d41.8805293!4d-87.6355415!16s%2Fg%2F11fn9y_hps!19sChIJX8LyFj4tDogR0r6YytElO2M?authuser=0&hl=en&rclk=1,https://lh5.googleusercontent.com/p/AF1QipNwFQynw0jNASvofkVvu2xFcfipJpHkDkAANqHY=w163-h92-k-no
87,Venue Logic | Weddings | Corporate Events,"1200 W 35th St, Chicago, IL",Event venue,5.0,25.0,Opens 8 AM Mon,Onsite services,41.83097505,-87.6565467892203,https://www.google.com/maps/place/Venue+Logic+%7C+Weddings+%7C+Corporate+Events/data=!4m7!3m6!1s0x880e2d3aa8a7a675:0x8d8e8d9a3f3a5df0!8m2!3d41.8307958!4d-87.6560992!16s%2Fg%2F12lt0hr2h!19sChIJdaanqDotDogR8F06P5qNjo0?authuser=0&hl=en&rclk=1,https://lh5.googleusercontent.com/p/AF1QipOqvB08yBHIDqoH0EXpujYyk5NvNLPtZ-ZQHQkZ=w122-h92-k-no
88,Convene,"333 N Green St, Chicago, IL",Event venue,4.9,10.0,Opens 9 AM Mon,Your event can be as formal or as casual as you want.,41.887739749999994,-87.6481333487151,https://www.google.com/maps/place/Convene/data=!4m7!3m6!1s0x880e2df65bb553b5:0xea770b0414d260d6!8m2!3d41.8876111!4d-87.6481285!16s%2Fg%2F11pysxqm6z!19sChIJtVO1W_YtDogR1mDSFAQLd-o?authuser=0&hl=en&rclk=1,https://lh5.googleusercontent.com/p/AF1QipM6zmcVePbbhTCtmU8Uz5uAgNPmaYx-iYQqq2if=w163-h92-k-no
89,Ignite Glass Studios,"401 N Armour St, Chicago, IL",Event venue,4.7,55.0,Opens 11 AM Mon,The reception room has plenty of natural light spilling in. The staff was ...,41.8893441,-87.6639906,https://www.google.com/maps/place/Ignite+Glass+Studios/data=!4m7!3m6!1s0x880e2d2ef9d5fd9d:0xed5ce130aea43e4e!8m2!3d41.8891017!4d-87.6652485!16s%2Fg%2F113f_8h64!19sChIJnf3V-S4tDogRTj6krjDhXO0?authuser=0&hl=en&rclk=1,https://lh5.googleusercontent.com/p/AF1QipOIHzTRtgaNfNJgUTFiFLGgAkOLrc-w-XyKPH6Z=w122-h92-k-no
90,Space 1858,"1858 W Grand Ave, Chicago, IL",Event venue,4.5,67.0,,The staff are very,41.891086099999995,-87.6743081374012,https://www.google.com/maps/place/Space+1858/data=!4m7!3m6!1s0x880e2d369e2f6bf1:0x680df999b699fa5!8m2!3d41.8910572!4d-87.6742874!16s%2Fg%2F11b6zt276g!19sChIJ8WsvnjYtDogRpZ9pm5nfgAY?authuser=0&hl=en&rclk=1,https://lh5.googleusercontent.com/p/AF1QipNfnqNUFPtaQxL5uioiefG2JxPnZvbuu7RpabQ=w126-h92-k-no
91,OFFSITE Chicago Corporate Meeting & Event Venue,"560 W Washington Blvd, Chicago, IL",Event venue,4.8,67.0,,,41.88342125,-87.64208162099082,https://www.google.com/maps/place/OFFSITE+Chicago+Corporate+Meeting+%26+Event+Venue/data=!4m7!3m6!1s0x880e2cc660ceafcd:0x7930b5139c9e72eb!8m2!3d41.8833018!4d-87.6420664!16s%2Fg%2F11b6bt94f9!19sChIJza_OYMYsDogR63KenBO1MHk?authuser=0&hl=en&rclk=1,https://lh5.googleusercontent.com/p/AF1QipMwhHNOWSsUB_a2H0CHesUeGI3hmIIZqxo3w9PW=w122-h92-k-no
92,Conference Chicago,"525 S State St, Chicago, IL",Conference center,4.1,32.0,,Wonderful,41.874897250000004,-87.62710836676914,https://www.google.com/maps/place/Conference+Chicago/data=!4m7!3m6!1s0x880e2c980c37b721:0xee238c1159a3f77a!8m2!3d41.8748314!4d-87.6274284!16s%2Fg%2F11xb5pjcj!19sChIJIbc3DJgsDogRevejWRGMI-4?authuser=0&hl=en&rclk=1,https://lh5.googleusercontent.com/p/AF1QipM2-tp_EnNZWlO68P_CmZSUpp-Q7nJPK3HXWzXj=w137-h92-k-no
